NORAD_CAT_ID,OBJECT_NAME,OBJECT_TYPE,EPOCH,MEAN_MOTION,ECCENTRICITY,INCLINATION,RA_OF_ASC_NODE,ARG_OF_PERICENTER,MEAN_ANOMALY,BSTAR,MEAN_MOTION_DOT,MEAN_MOTION_DDOT,TLE_LINE0,TLE_LINE1,TLE_LINE2,SEMIMAJOR_AXIS,PERIOD,APOGEE,PERIGEE,DECAYED
55296.0,STARLINK-5285,PAYLOAD,2023-05-23 06:00:00,15.45270208,0.0003329,70.0011,82.0066,276.9491,86.4381,-0.020428,-0.00898325,0.0,0 STARLINK-5285,1 55296U 23010AD  23143.25001157 -.00898325  00000-0 -20428-1 0  9991,2 55296  70.0011  82.0066 0003329 276.9491  86.4381 15.45270208 19908,6808.721,93.188,432.853,428.32,0.0
55296.0,STARLINK-5285,PAYLOAD,2023-05-23 22:00:00,15.44001904,0.0003222,70.0015,80.202,266.8863,202.484,-0.023055,-0.00964836,0.0,0 STARLINK-5285,1 55296U 23010AD  23143.91667824 -.00964836  00000-0 -23055-1 0  9993,2 55296  70.0015  80.2020 0003222 266.8863 202.4840 15.44001904 20013,6812.449,93.264,436.509,432.119,0.0
55296.0,STARLINK-5285,PAYLOAD,2023-05-24 14:00:01,15.42637004,0.0003198,70.0011,78.4007,266.1129,306.1995,-0.021426,-0.00864272,0.0,0 STARLINK-5285,1 55296U 23010AD  23144.58335648 -.00864272  00000-0 -21426-1 0  9996,2 55296  70.0011  78.4007 0003198 266.1129 306.1995 15.42637004 20111,6816.467,93.347,440.512,436.152,0.0
55296.0,STARLINK-5285,PAYLOAD,2023-05-24 22:00:00,15.42039816,0.0003272,70.0013,77.5016,266.4757,356.0143,-0.024359,-0.00954934,0.0,0 STARLINK-5285,1 55296U 23010AD  23144.91667824 -.00954934  00000-0 -24359-1 0  9990,2 55296  70.0013  77.5016 0003272 266.4757 356.0143 15.42039816  1302,6818.227,93.383,442.323,437.861,0.0
55296.0,STARLINK-5285,PAYLOAD,2023-05-25 06:00:00,15.41353414,0.0003311,70.0011,76.6031,274.035,37.9377,-0.023194,-0.00893747,0.0,0 STARLINK-5285,1 55296U 23010AD  23145.25001157 -.00893747  00000-0 -23194-1 0  9999,2 55296  70.0011  76.6031 0003311 274.0350  37.9377 15.41353414 20212,6820.251,93.424,444.374,439.858,0.0
55296.0,STARLINK-5285,PAYLOAD,2023-05-25 14:00:01,15.40676087,0.000331,70.0009,75.7057,269.4937,91.1808,-0.022674,-0.00857159,0.0,0 STARLINK-5285,1 55296U 23010AD  23145.58334491 -.00857159  00000-0 -22674-1 0  9994,2 55296  70.0009  75.7057 0003310 269.4937  91.1808 15.40676087  1308,6822.25,93.465,446.373,441.857,0.0
55296.0,STARLINK-5285,PAYLOAD,2023-05-25 22:00:00,15.40085373,0.0003371,70.001,74.8093,270.1735,138.3953,-0.026232,-0.00962816,0.0,0 STARLINK-5285,1 55296U 23010AD  23145.91667824 -.00962816  00000-0 -26232-1 0  9991,2 55296  70.0010  74.8093 0003371 270.1735 138.3953 15.40085373 20311,6823.994,93.501,448.159,443.559,0.0
55296.0,STARLINK-5285,PAYLOAD,2023-05-26 00:00:02,15.39893741,0.0003236,70.0008,74.5852,272.3006,238.1987,-0.025231,-0.00923602,0.0,0 STARLINK-5285,1 55296U 23010AD  23146.00002315 -.00923602  00000-0 -25231-1 0  9998,2 55296  70.0008  74.5852 0003236 272.3006 238.1987 15.39893741  1301,6824.56,93.513,448.634,444.217,0.0
55296.0,STARLINK-5285,PAYLOAD,2023-05-26 14:00:01,15.38716142,0.0003229,70.0008,73.0188,270.7058,231.354,-0.023953,-0.00849396,0.0,0 STARLINK-5285,1 55296U 23010AD  23146.58334491 -.00849396  00000-0 -23953-1 0  9990,2 55296  70.0008  73.0188 0003229 270.7058 231.3540 15.38716142 20420,6828.042,93.585,452.112,447.702,0.0
55296.0,STARLINK-5285,PAYLOAD,2023-05-26 22:00:01,15.38119892,0.0003298,70.001,72.125,269.5382,278.1361,-0.027561,-0.00949441,0.0,0 STARLINK-5285,1 55296U 23010AD  23146.91668981 -.00949441  00000-0 -27561-1 0  9992,2 55296  70.0010  72.1250 0003298 269.5382 278.1361 15.38119892  1300,6829.806,93.621,453.924,449.419,0.0
55296.0,STARLINK-5285,PAYLOAD,2023-05-27 06:00:02,15.37443596,0.0003316,70.0006,71.2318,273.6712,318.7864,-0.026571,-0.00899626,0.0,0 STARLINK-5285,1 55296U 23010AD  23147.25002315 -.00899626  00000-0 -26571-1 0  9992,2 55296  70.0006  71.2318 0003316 273.6712 318.7864 15.37443596 20528,6831.809,93.662,455.939,451.409,0.0
55296.0,STARLINK-5285,PAYLOAD,2023-05-27 22:00:00,15.36163698,0.0003548,70.0012,69.4485,268.692,50.9151,-0.029389,-0.00950113,0.0,0 STARLINK-5285,1 55296U 23010AD  23147.91667824 -.00950113  00000-0 -29389-1 0  9996,2 55296  70.0012  69.4485 0003548 268.6920  50.9151 15.36163698 20627,6835.603,93.74,459.893,455.043,0.0
55296.0,STARLINK-5285,PAYLOAD,2023-05-28 06:00:00,15.35485656,0.0003602,70.0008,68.558,274.4469,87.5967,-0.02829,-0.00899209,0.0,0 STARLINK-5285,1 55296U 23010AD  23148.25001157 -.00899209  00000-0 -28290-1 0  9993,2 55296  70.0008  68.5580 0003602 274.4469  87.5967 15.35485656  1307,6837.615,93.781,461.943,457.017,0.0
55296.0,STARLINK-5285,PAYLOAD,2023-05-28 14:00:01,15.34800639,0.000351,70.0009,67.6684,269.517,134.1904,-0.027066,-0.0084589,0.0,0 STARLINK-5285,1 55296U 23010AD  23148.58334491 -.00845890  00000-0 -27066-1 0  9996,2 55296  70.0009  67.6684 0003510 269.5170 134.1904 15.34800639 20723,6839.65,93.823,463.915,459.114,0.0
55296.0,STARLINK-5285,PAYLOAD,2023-05-28 22:00:00,15.34206864,0.0003509,70.0013,66.7798,270.2722,174.2916,-0.031378,-0.00952497,0.0,0 STARLINK-5285,1 55296U 23010AD  23148.91667824 -.00952497  00000-0 -31378-1 0  9995,2 55296  70.0013  66.7798 0003509 270.2722 174.2916 15.34206864 20788,6841.414,93.86,465.68,460.879,0.0
55296.0,STARLINK-5285,PAYLOAD,2023-05-29 03:54:29,15.35384483,0.0003374,69.999,66.13,284.8561,75.2243,-0.0079707,-0.00265543,0.0,0 STARLINK-5285,1 55296U 23010AD  23149.16284537 -.00265543  00000-0 -79707-2 0  9997,2 55296  69.9990  66.1300 0003374 284.8561  75.2243 15.35384483 20816,6837.916,93.788,462.088,457.474,0.0
55296.0,STARLINK-5285,PAYLOAD,2023-05-29 11:44:09,15.34782033,0.0003191,69.9985,65.2637,272.4917,87.5896,-0.0082335,-0.00268947,0.0,0 STARLINK-5285,1 55296U 23010AD  23149.48900017 -.00268947  00000-0 -82335-2 0  9992,2 55296  69.9985  65.2637 0003191 272.4917  87.5896 15.34782033 22058,6839.705,93.824,463.753,459.387,0.0
55296.0,STARLINK-5285,PAYLOAD,2023-05-29 14:00:01,15.32847756,0.0003337,70.0011,65.005,268.2581,255.7098,-0.028961,-0.00850288,0.0,0 STARLINK-5285,1 55296U 23010AD  23149.58334491 -.00850288  00000-0 -28961-1 0  9999,2 55296  70.0011  65.0050 0003337 268.2581 255.7098 15.32847756 20884,6845.458,93.943,469.607,465.038,0.0
55296.0,STARLINK-5285,PAYLOAD,2023-05-29 21:08:03,15.33872224,0.0005059,70.0,64.2227,293.3385,66.7259,-0.0073222,-0.00233547,0.0,0 STARLINK-5285,1 55296U 23010AD  23149.88059196 -.00233547  00000-0 -73222-2 0  9992,2 55296  70.0000  64.2227 0005059 293.3385  66.7259 15.33872224 22119,6842.409,93.88,467.736,460.813,0.0
55296.0,STARLINK-5285,PAYLOAD,2023-05-29 22:00:00,15.32243775,0.0003371,70.0015,64.119,270.2124,292.2692,-0.03306,-0.00943827,0.0,0 STARLINK-5285,1 55296U 23010AD  23149.91667824 -.00943827  00000-0 -33060-1 0  9993,2 55296  70.0015  64.1190 0003371 270.2124 292.2692 15.32243775 20930,6847.257,93.98,471.43,466.813,0.0
55296.0,STARLINK-5285,PAYLOAD,2023-05-30 14:00:01,15.30891275,0.0003355,70.0015,62.3498,265.8538,11.3342,-0.03069,-0.00847635,0.0,0 STARLINK-5285,1 55296U 23010AD  23150.58334491 -.00847635  00000-0 -30690-1 0  9995,2 55296  70.0015  62.3498 0003355 265.8538  11.3342 15.30891275 21038,6851.289,94.063,475.452,470.855,0.0
55296.0,STARLINK-5285,PAYLOAD,2023-05-30 22:00:00,15.30287995,0.0003451,70.0017,61.4665,269.4544,43.9015,-0.035241,-0.00958293,0.0,0 STARLINK-5285,1 55296U 23010AD  23150.91667824 -.00958293  00000-0 -35241-1 0  9991,2 55296  70.0017  61.4665 0003451 269.4544  43.9015 15.30287995 21081,6853.089,94.1,477.319,472.589,0.0
55296.0,STARLINK-5285,PAYLOAD,2023-05-31 00:00:02,15.30093048,0.0003462,70.0016,61.2458,272.9973,139.3546,-0.033384,-0.00895332,0.0,0 STARLINK-5285,1 55296U 23010AD  23151.00002315 -.00895332  00000-0 -33384-1 0  9990,2 55296  70.0016  61.2458 0003462 272.9973 139.3546 15.30093048  1301,6853.671,94.112,477.909,473.164,0.0
55296.0,STARLINK-5285,PAYLOAD,2023-05-31 14:00:01,15.28932802,0.0003408,70.0017,59.7027,268.0945,115.2755,-0.032498,-0.00844948,0.0,0 STARLINK-5285,1 55296U 23010AD  23151.58334491 -.00844948  00000-0 -32498-1 0  9998,2 55296  70.0017  59.7027 0003408 268.0945 115.2755 15.28932802 21181,6857.138,94.183,481.34,476.666,0.0
55296.0,STARLINK-5285,PAYLOAD,2023-05-31 22:00:00,15.28326274,0.0003419,70.0019,58.8223,271.9122,145.2799,-0.037186,-0.00952239,0.0,0 STARLINK-5285,1 55296U 23010AD  23151.91667824 -.00952239  00000-0 -37186-1 0  9996,2 55296  70.0019  58.8223 0003419 271.9122 145.2799 15.28326274 21230,6858.952,94.221,483.162,478.472,0.0
55296.0,STARLINK-5285,PAYLOAD,2023-06-01 12:00:02,15.27139651,0.0003311,70.0019,57.2834,269.6635,114.922,-0.034931,-0.00858512,0.0,0 STARLINK-5285,1 55296U 23010AD  23152.50002315 -.00858512  00000-0 -34931-1 0  9994,2 55296  70.0019  57.2834 0003311 269.6635 114.9220 15.27139651  1303,6862.505,94.294,486.642,482.098,0.0
55296.0,STARLINK-5285,PAYLOAD,2023-06-01 22:00:00,15.26359836,0.0003262,70.002,56.1862,272.0949,241.895,-0.038824,-0.00937424,0.0,0 STARLINK-5285,1 55296U 23010AD  23152.91667824 -.00937424  00000-0 -38824-1 0  9996,2 55296  70.0020  56.1862 0003262 272.0949 241.8950 15.26359836 21394,6864.842,94.342,488.946,484.468,0.0
55296.0,STARLINK-5285,PAYLOAD,2023-06-02 14:00:01,15.25022737,0.0003179,70.002,54.433,266.9745,307.6348,-0.036729,-0.0084754,0.0,0 STARLINK-5285,1 55296U 23010AD  23153.58334491 -.00847540  00000-0 -36729-1 0  9992,2 55296  70.0020  54.4330 0003179 266.9745 307.6348 15.25022737  1305,6868.854,94.425,492.903,488.536,0.0
55296.0,STARLINK-5285,PAYLOAD,2023-06-02 22:00:00,15.24395347,0.0003246,70.0022,53.5579,270.7365,333.0093,-0.040552,-0.00923894,0.0,0 STARLINK-5285,1 55296U 23010AD  23153.91667824 -.00923894  00000-0 -40552-1 0  9994,2 55296  70.0022  53.5579 0003246 270.7365 333.0093 15.24395347  1307,6870.739,94.464,494.834,490.373,0.0
55296.0,STARLINK-5285,PAYLOAD,2023-06-03 06:00:00,15.23773557,0.0003268,70.0017,52.6833,273.404,358.6774,-0.043044,-0.00959753,0.0,0 STARLINK-5285,1 55296U 23010AD  23154.25001157 -.00959753  00000-0 -43044-1 0  9995,2 55296  70.0017  52.6833 0003268 273.4040 358.6774 15.23773557 21592,6872.608,94.502,496.719,492.227,0.0
